# Minor moons of the giant planets.

# Semiaxes from the Natural Satellites Data Center
# http://lnfm1.sai.msu.ru/neb/nss/pardihe.htm,
# supplemented by Karkoschka "Sizes, shapes and albedos
# of the inner satellites of Neptune" Icarus 2003; 162: 400
# and Porco et al. "Physical characteristics and possible
# accretionary origins for Saturn's small satellites" (2006)
# http://www.lpi.usra.edu/meetings/lpsc2006/pdf/2289.pdf

# Minor moons of Jupiter

"Metis:Jupiter XVI:S 1979 J 3" "Sol/Jupiter"
{
	Class	"minormoon"
	Mesh	"roughsphere.cms"
	Texture	"asteroid.*"
	Color	[ 1.0 0.82 0.64 ]
	BlendTexture	true
	SemiAxes	[ 30 20 17 ]
	OrbitFrame
	{
		EclipticJ2000	{ Center "Sol/Jupiter" }
	}
	EllipticalOrbit
	{
		Epoch	2451547.5  # 2000 Jan 04
		Period	0.2947802
		SemiMajorAxis	127960
		Eccentricity	0.0002
		Inclination	2.223400
		AscendingNode	337.566894
		ArgOfPericenter	3.698191
		MeanAnomaly	356.055993
	}
	UniformRotation
	{
		MeridianAngle	366
	}
	LunarLambert	0.5
	GeomAlbedo	0.061
	InfoURL	"https://en.wikipedia.org/wiki/Metis_(moon)"
}

"Adrastea:Jupiter XV:S 1979 J 1" "Sol/Jupiter"
{
	Class	"minormoon"
	Mesh	"roughsphere.cms"
	Texture	"asteroid.*"
	SemiAxes	[ 10 8 7 ]
	OrbitFrame
	{
		EclipticJ2000	{ Center "Sol/Jupiter" }
	}
	EllipticalOrbit
	{
		Epoch	2450600.5  # 1997 Jun 01
		Period	0.2982614
		SemiMajorAxis	128980
		Eccentricity	0.0015
		Inclination	2.208538
		AscendingNode	338.099050
		ArgOfPericenter	344.990296
		MeanAnomaly	359.173664
	}
	UniformRotation
	{
		MeridianAngle	55
	}
	LunarLambert	0.5
	GeomAlbedo	0.10
	InfoURL	"https://en.wikipedia.org/wiki/Adrastea_(moon)"
}

"Amalthea:Jupiter V" "Sol/Jupiter"
{
	Class	"minormoon"
	Mesh	"amalthea.cmod"
	Texture	"amalthea.*"
	Color	[ 1.0 0.748 0.579 ]
	Radius	131
	OrbitFrame
	{
		EclipticJ2000	{ Center "Sol/Jupiter" }
	}
	EllipticalOrbit
	{
		Epoch	2452583.5  # 2002 Nov 05
		Period	0.49817943
		SemiMajorAxis	181365.84
		Eccentricity	0.00319
		Inclination	1.961072
		AscendingNode	330.184787
		ArgOfPericenter	258.668062
		MeanAnomaly	36.001500
	}
	BodyFrame	{ EquatorJ2000 {} }
	CustomRotation	"iau-amalthea"

	# Overriden by CustomRotation
	# UniformRotation
	# {
	#	Inclination	25.51
	#	AscendingNode	358.05
	#	MeridianAngle	231.67
	# }

	LunarLambert	0.5
	GeomAlbedo	0.090
	InfoURL	"https://en.wikipedia.org/wiki/Amalthea_(moon)"
}

"Thebe:Jupiter XIV:S 1979 J 2" "Sol/Jupiter"
{
	Class	"minormoon"
	Mesh	"thebe.cmod"
	Orientation	[ 1 180 0 0 ]
	Texture	"asteroid.*"
	Color	[ 1.0 0.88 0.75 ]
	BlendTexture	true
	Radius	58
	OrbitFrame
	{
		EclipticJ2000	{ Center "Sol/Jupiter" }
	}
	EllipticalOrbit
	{
		Epoch	2451547.5  # 2000 Jan 04
		Period	0.674536
		SemiMajorAxis	221889
		Eccentricity	0.0175
		Inclination	3.287041
		AscendingNode	336.986660
		ArgOfPericenter	37.994357
		MeanAnomaly	66.589905
	}
	UniformRotation
	{
		MeridianAngle	29.5
	}
	LunarLambert	0.5
	GeomAlbedo	0.047
	InfoURL	"https://en.wikipedia.org/wiki/Thebe_(moon)"
}

"Themisto:Jupiter XVIII:S 1975 J 1:S 2000 J 1" "Sol/Jupiter"
{
	Class	"minormoon"
	Mesh	"asteroid.cms"
	Texture	"asteroid.*"
	Radius	4.5
	OrbitFrame
	{
		EclipticJ2000	{ Center "Sol/Jupiter" }
	}
	EllipticalOrbit
	{
		Epoch	2451897.5  # 2000 Dec 19
		Period	130.200230
		SemiMajorAxis	7405264.419
		Eccentricity	0.203913
		Inclination	45.483645
		AscendingNode	202.317030
		ArgOfPericenter	238.408454
		MeanAnomaly	182.658856
	}
	UniformRotation
	{
		Period	10
	}
	LunarLambert	0.5
	GeomAlbedo	0.04
	InfoURL	"https://en.wikipedia.org/wiki/Themisto_(moon)"
}

"Leda:Jupiter XIII" "Sol/Jupiter"
{
	Class	"minormoon"
	Mesh	"asteroid.cms"
	Texture	"asteroid.*"
	Radius	9
	OrbitFrame
	{
		EclipticJ2000	{ Center "Sol/Jupiter" }
	}
	EllipticalOrbit
	{
		Epoch	2451897.5  # 2000 Dec 19
		Period	239.499143
		SemiMajorAxis	11117369.619
		Eccentricity	0.167795
		Inclination	27.358545
		AscendingNode	216.674923
		ArgOfPericenter	267.436108
		MeanAnomaly	42.721837
	}
	UniformRotation
	{
		Period	10
	}
	LunarLambert	0.5
	GeomAlbedo	0.04
	InfoURL	"https://en.wikipedia.org/wiki/Leda_(moon)"
}

"Ersa:Jupiter LXXI:S 2018 J 1" "Sol/Jupiter"
{
	Class	"minormoon"
	Mesh	"asteroid.cms"
	Texture	"asteroid.*"
	Radius	1.5
	OrbitFrame
	{
		EclipticJ2000	{ Center "Sol/Jupiter" }
	}
	EllipticalOrbit
	{
		Epoch	2451897.5  # 2000 Dec 19
		Period	247.904518
		SemiMajorAxis	11375985.514
		Eccentricity	0.138802
		Inclination	30.501409
		AscendingNode	111.901166
		ArgOfPericenter	303.307245
		MeanAnomaly	59.028990
	}
	UniformRotation
	{
		Period	10
	}
	LunarLambert	0.5
	GeomAlbedo	0.04
	InfoURL	"https://en.wikipedia.org/wiki/Ersa_(moon)"
}

"Pandia:Jupiter LXV:S 2017 J 4" "Sol/Jupiter"
{
	Class	"minormoon"
	Mesh	"asteroid.cms"
	Texture	"asteroid.*"
	Radius	1.5
	OrbitFrame
	{
		EclipticJ2000	{ Center "Sol/Jupiter" }
	}
	EllipticalOrbit
	{
		Epoch	2451897.5  # 2000 Dec 19
		Period	249.814801
		SemiMajorAxis	11434350.813
		Eccentricity	0.170906
		Inclination	28.654662
		AscendingNode	249.676866
		ArgOfPericenter	195.020013
		MeanAnomaly	296.209279
	}
	UniformRotation
	{
		Period	10
	}
	LunarLambert	0.5
	GeomAlbedo	0.04
	InfoURL	"https://en.wikipedia.org/wiki/Pandia_(moon)"
}

"Himalia:Jupiter VI" "Sol/Jupiter"
{
	Class	"minormoon"
	Mesh	"roughsphere.cms"
	Texture	"asteroid.*"
	SemiAxes	[ 102.8 102.8 70.7 ]
	OrbitFrame
	{
		EclipticJ2000	{ Center "Sol/Jupiter" }
	}
	EllipticalOrbit
	{
		Epoch	2451897.5  # 2000 Dec 19
		Period	252.892366
		SemiMajorAxis	11528068.498
		Eccentricity	0.141416
		Inclination	30.505140
		AscendingNode	63.928151
		ArgOfPericenter	330.084672
		MeanAnomaly	215.283717
	}
	UniformRotation
	{
		Period	7.782
	}
	LunarLambert	0.5
	GeomAlbedo	0.04
	InfoURL	"https://en.wikipedia.org/wiki/Himalia_(moon)"
}

"Lysithea:Jupiter X" "Sol/Jupiter"
{
	Class	"minormoon"
	Mesh	"asteroid.cms"
	Texture	"asteroid.*"
	Radius	19
	OrbitFrame
	{
		EclipticJ2000	{ Center "Sol/Jupiter" }
	}
	EllipticalOrbit
	{
		Epoch	2451897.5  # 2000 Dec 19
		Period	256.620470
		SemiMajorAxis	11641088.737
		Eccentricity	0.135788
		Inclination	27.240958
		AscendingNode	7.893922
		ArgOfPericenter	53.302995
		MeanAnomaly	94.313415
	}
	UniformRotation
	{
		Period	10
	}
	LunarLambert	0.5
	GeomAlbedo	0.04
	InfoURL	"https://en.wikipedia.org/wiki/Lysithea_(moon)"
}

"Elara:Jupiter VII" "Sol/Jupiter"
{
	Class	"minormoon"
	Mesh	"asteroid.cms"
	Texture	"asteroid.*"
	Radius	39
	OrbitFrame
	{
		EclipticJ2000	{ Center "Sol/Jupiter" }
	}
	EllipticalOrbit
	{
		Epoch	2451897.5  # 2000 Dec 19
		Period	258.322533
		SemiMajorAxis	11692505.842
		Eccentricity	0.222365
		Inclination	29.549339
		AscendingNode	110.859326
		ArgOfPericenter	137.161578
		MeanAnomaly	111.055085
	}
	UniformRotation
	{
		Period	12
	}
	LunarLambert	0.5
	GeomAlbedo	0.04
	InfoURL	"https://en.wikipedia.org/wiki/Elara_(moon)"
}

"Dia:Jupiter LIII:S 2000 J 11" "Sol/Jupiter"
{
	Class	"minormoon"
	Mesh	"asteroid.cms"
	Texture	"asteroid.*"
	Radius	2
	OrbitFrame
	{
		EclipticJ2000	{ Center "Sol/Jupiter" }
	}
	EllipticalOrbit
	{
		Epoch	2451897.5  # 2000 Dec 19
		Period	275.173191
		SemiMajorAxis	12195608.709
		Eccentricity	0.197181
		Inclination	28.321938
		AscendingNode	291.962580
		ArgOfPericenter	166.549499
		MeanAnomaly	57.380099
	}
	UniformRotation
	{
		Period	10
	}
	LunarLambert	0.5
	GeomAlbedo	0.04
	InfoURL	"https://en.wikipedia.org/wiki/Dia_(moon)"
}

"Carpo:Jupiter XLVI:S 2003 J 20" "Sol/Jupiter"
{
	Class	"minormoon"
	Mesh	"asteroid.cms"
	Texture	"asteroid.*"
	Radius	1.5
	OrbitFrame
	{
		EclipticJ2000	{ Center "Sol/Jupiter" }
	}
	EllipticalOrbit
	{
		Epoch	2451897.5  # 2000 Dec 19
		Period	453.719657
		SemiMajorAxis	17021237.509
		Eccentricity	0.265587
		Inclination	58.741391
		AscendingNode	52.177289
		ArgOfPericenter	78.578484
		MeanAnomaly	269.762562
	}
	UniformRotation
	{
		Period	10
	}
	LunarLambert	0.5
	GeomAlbedo	0.04
	InfoURL	"https://en.wikipedia.org/wiki/Carpo_(moon)"
}

"Valetudo:Jupiter LXII:S 2016 J 2" "Sol/Jupiter"
{
	Class	"minormoon"
	Mesh	"asteroid.cms"
	Texture	"asteroid.*"
	Radius	0.5
	OrbitFrame
	{
		EclipticJ2000	{ Center "Sol/Jupiter" }
	}
	EllipticalOrbit
	{
		Epoch	2451897.5  # 2000 Dec 19
		Period	508.719990
		SemiMajorAxis	18370399.650
		Eccentricity	0.232587
		Inclination	34.452421
		AscendingNode	286.820439
		ArgOfPericenter	343.940893
		MeanAnomaly	304.994989
	}
	UniformRotation
	{
		Period	10
	}
	LunarLambert	0.5
	GeomAlbedo	0.04
	InfoURL	"https://en.wikipedia.org/wiki/Valetudo_(moon)"
}

"Euporie:Jupiter XXXIV:S 2001 J 10" "Sol/Jupiter"
{
	Class	"minormoon"
	Mesh	"asteroid.cms"
	Texture	"asteroid.*"
	Radius	1
	OrbitFrame
	{
		EclipticJ2000	{ Center "Sol/Jupiter" }
	}
	EllipticalOrbit
	{
		Epoch	2451897.5  # 2000 Dec 19
		Period	557.055206
		SemiMajorAxis	19516333.325
		Eccentricity	0.126715
		Inclination	147.905804
		AscendingNode	64.261907
		ArgOfPericenter	82.140628
		MeanAnomaly	310.837700
	}
	UniformRotation
	{
		Period	10
	}
	LunarLambert	0.5
	GeomAlbedo	0.04
	InfoURL	"https://en.wikipedia.org/wiki/Euporie_(moon)"
}

"Jupiter LV:S 2003 J 18" "Sol/Jupiter"
{
	Class	"minormoon"
	Mesh	"asteroid.cms"
	Texture	"asteroid.*"
	Radius	1
	OrbitFrame
	{
		EclipticJ2000	{ Center "Sol/Jupiter" }
	}
	EllipticalOrbit
	{
		Epoch	2451897.5  # 2000 Dec 19
		Period	577.570367
		SemiMajorAxis	19992602.769
		Eccentricity	0.080689
		Inclination	144.025382
		AscendingNode	169.571508
		ArgOfPericenter	92.020329
		MeanAnomaly	104.382385
	}
	UniformRotation
	{
		Period	10
	}
	LunarLambert	0.5
	GeomAlbedo	0.04
	InfoURL	"https://en.wikipedia.org/wiki/Jupiter_LV"
}

"Eupheme:Jupiter LX:S 2003 J 3" "Sol/Jupiter"
{
	Class	"minormoon"
	Mesh	"asteroid.cms"
	Texture	"asteroid.*"
	Radius	1
	OrbitFrame
	{
		EclipticJ2000	{ Center "Sol/Jupiter" }
	}
	EllipticalOrbit
	{
		Epoch	2451897.5  # 2000 Dec 19
		Period	581.868658
		SemiMajorAxis	20091670.408
		Eccentricity	0.390020
		Inclination	149.139264
		AscendingNode	226.762806
		ArgOfPericenter	69.197501
		MeanAnomaly	188.588647
	}
	UniformRotation
	{
		Period	10
	}
	LunarLambert	0.5
	GeomAlbedo	0.04
	InfoURL	"https://en.wikipedia.org/wiki/Eupheme_(moon)"
}

